[
  {
    "CCSDS_OMM_VERS": "3.0",
    "COMMENT": "GENERATED VIA SPACE-TRACK.ORG API",
    "CREATION_DATE": "2026-02-19T17:59:09",
    "ORIGINATOR": "18 SPCS",
    "OBJECT_NAME": "FENGYUN 1C DEB",
    "OBJECT_ID": "1999-025JC",
    "CENTER_NAME": "EARTH",
    "REF_FRAME": "TEME",
    "TIME_SYSTEM": "UTC",
    "MEAN_ELEMENT_THEORY": "SGP4",
    "EPOCH": "2026-02-19T15:09:37.403424",
    "MEAN_MOTION": "14.20927086",
    "ECCENTRICITY": "0.01627380",
    "INCLINATION": "99.0390",
    "RA_OF_ASC_NODE": "299.4871",
    "ARG_OF_PERICENTER": "216.3387",
    "MEAN_ANOMALY": "162.9178",
    "EPHEMERIS_TYPE": "0",
    "CLASSIFICATION_TYPE": "U",
    "NORAD_CAT_ID": "29930",
    "ELEMENT_SET_NO": "999",
    "REV_AT_EPOCH": "98869",
    "BSTAR": "0.00017766389000",
    "MEAN_MOTION_DOT": "0.00000391",
    "MEAN_MOTION_DDOT": "0.0000000000000",
    "SEMIMAJOR_AXIS": "7200.356",
    "PERIOD": "101.342",
    "APOAPSIS": "939.398",
    "PERIAPSIS": "705.044",
    "OBJECT_TYPE": "DEBRIS",
    "RCS_SIZE": "SMALL",
    "COUNTRY_CODE": "PRC",
    "LAUNCH_DATE": "1999-05-10",
    "SITE": "TSC",
    "DECAY_DATE": null,
    "FILE": "5039972",
    "GP_ID": "313164254",
    "TLE_LINE0": "0 FENGYUN 1C DEB",
    "TLE_LINE1": "1 29930U 99025JC  26050.63168291  .00000391  00000-0  17766-3 0  9990",
    "TLE_LINE2": "2 29930  99.0390 299.4871 0162738 216.3387 162.9178 14.20927086988695"
  },
  {
    "CCSDS_OMM_VERS": "3.0",
    "COMMENT": "GENERATED VIA SPACE-TRACK.ORG API",
    "CREATION_DATE": "2026-02-19T17:59:09",
    "ORIGINATOR": "18 SPCS",
    "OBJECT_NAME": "NIMBUS 2 DEB",
    "OBJECT_ID": "1966-040BE",
    "CENTER_NAME": "EARTH",
    "REF_FRAME": "TEME",
    "TIME_SYSTEM": "UTC",
    "MEAN_ELEMENT_THEORY": "SGP4",
    "EPOCH": "2026-02-19T15:09:28.182816",
    "MEAN_MOTION": "13.45007116",
    "ECCENTRICITY": "0.00441525",
    "INCLINATION": "100.4065",
    "RA_OF_ASC_NODE": "296.6746",
    "ARG_OF_PERICENTER": "105.3731",
    "MEAN_ANOMALY": "255.2282",
    "EPHEMERIS_TYPE": "0",
    "CLASSIFICATION_TYPE": "U",
    "NORAD_CAT_ID": "40641",
    "ELEMENT_SET_NO": "999",
    "REV_AT_EPOCH": "52710",
    "BSTAR": "0.00265528830000",
    "MEAN_MOTION_DOT": "0.00001524",
    "MEAN_MOTION_DDOT": "0.0000000000000",
    "SEMIMAJOR_AXIS": "7468.822",
    "PERIOD": "107.063",
    "APOAPSIS": "1123.664",
    "PERIAPSIS": "1057.710",
    "OBJECT_TYPE": "DEBRIS",
    "RCS_SIZE": "SMALL",
    "COUNTRY_CODE": "US",
    "LAUNCH_DATE": "1966-05-15",
    "SITE": "AFWTR",
    "DECAY_DATE": null,
    "FILE": "5039972",
    "GP_ID": "313169393",
    "TLE_LINE0": "0 NIMBUS 2 DEB",
    "TLE_LINE1": "1 40641U 66040BE  26050.63157619  .00001524  00000-0  26553-2 0  9997",
    "TLE_LINE2": "2 40641 100.4065 296.6746 0044152 105.3731 255.2282 13.45007116527108"
  },
  {
    "CCSDS_OMM_VERS": "3.0",
    "COMMENT": "GENERATED VIA SPACE-TRACK.ORG API",
    "CREATION_DATE": "2026-02-19T17:59:09",
    "ORIGINATOR": "18 SPCS",
    "OBJECT_NAME": "SL-8 DEB",
    "OBJECT_ID": "1969-024C",
    "CENTER_NAME": "EARTH",
    "REF_FRAME": "TEME",
    "TIME_SYSTEM": "UTC",
    "MEAN_ELEMENT_THEORY": "SGP4",
    "EPOCH": "2026-02-19T15:09:13.484448",
    "MEAN_MOTION": "13.28168647",
    "ECCENTRICITY": "0.00133095",
    "INCLINATION": "73.9872",
    "RA_OF_ASC_NODE": "120.6081",
    "ARG_OF_PERICENTER": "302.7858",
    "MEAN_ANOMALY": "208.8133",
    "EPHEMERIS_TYPE": "0",
    "CLASSIFICATION_TYPE": "U",
    "NORAD_CAT_ID": "6289",
    "ELEMENT_SET_NO": "999",
    "REV_AT_EPOCH": "74990",
    "BSTAR": "0.00095183749000",
    "MEAN_MOTION_DOT": "0.00000412",
    "MEAN_MOTION_DDOT": "0.0000000000000",
    "SEMIMAJOR_AXIS": "7531.816",
    "PERIOD": "108.420",
    "APOAPSIS": "1163.705",
    "PERIAPSIS": "1143.656",
    "OBJECT_TYPE": "DEBRIS",
    "RCS_SIZE": "SMALL",
    "COUNTRY_CODE": "CIS",
    "LAUNCH_DATE": "1969-03-17",
    "SITE": "PKMTR",
    "DECAY_DATE": null,
    "FILE": "5039972",
    "GP_ID": "313157216",
    "TLE_LINE0": "0 SL-8 DEB",
    "TLE_LINE1": "1 06289U 69024C   26050.63140607  .00000412  00000-0  95184-3 0  9993",
    "TLE_LINE2": "2 06289  73.9872 120.6081 0013309 302.7858 208.8133 13.28168647749900"
  },
  {
    "CCSDS_OMM_VERS": "3.0",
    "COMMENT": "GENERATED VIA SPACE-TRACK.ORG API",
    "CREATION_DATE": "2026-02-19T17:59:09",
    "ORIGINATOR": "18 SPCS",
    "OBJECT_NAME": "FENGYUN 1C DEB",
    "OBJECT_ID": "1999-025BNB",
    "CENTER_NAME": "EARTH",
    "REF_FRAME": "TEME",
    "TIME_SYSTEM": "UTC",
    "MEAN_ELEMENT_THEORY": "SGP4",
    "EPOCH": "2026-02-19T15:09:02.877120",
    "MEAN_MOTION": "14.44858941",
    "ECCENTRICITY": "0.02386232",
    "INCLINATION": "98.1758",
    "RA_OF_ASC_NODE": "291.1671",
    "ARG_OF_PERICENTER": "65.3631",
    "MEAN_ANOMALY": "326.7430",
    "EPHEMERIS_TYPE": "0",
    "CLASSIFICATION_TYPE": "U",
    "NORAD_CAT_ID": "31269",
    "ELEMENT_SET_NO": "999",
    "REV_AT_EPOCH": "97481",
    "BSTAR": "0.00106324400000",
    "MEAN_MOTION_DOT": "0.00005206",
    "MEAN_MOTION_DDOT": "0.0000000000000",
    "SEMIMAJOR_AXIS": "7120.627",
    "PERIOD": "99.664",
    "APOAPSIS": "912.406",
    "PERIAPSIS": "572.577",
    "OBJECT_TYPE": "DEBRIS",
    "RCS_SIZE": "SMALL",
    "COUNTRY_CODE": "PRC",
    "LAUNCH_DATE": "1999-05-10",
    "SITE": "TSC",
    "DECAY_DATE": null,
    "FILE": "5039972",
    "GP_ID": "313165218",
    "TLE_LINE0": "0 FENGYUN 1C DEB",
    "TLE_LINE1": "1 31269U 99025BNB 26050.63128330  .00005206  00000-0  10632-2 0  9992",
    "TLE_LINE2": "2 31269  98.1758 291.1671 0238623  65.3631 326.7430 14.44858941974818"
  },
  {
    "CCSDS_OMM_VERS": "3.0",
    "COMMENT": "GENERATED VIA SPACE-TRACK.ORG API",
    "CREATION_DATE": "2026-02-19T17:59:09",
    "ORIGINATOR": "18 SPCS",
    "OBJECT_NAME": "CZ-6A DEB",
    "OBJECT_ID": "2024-140AH",
    "CENTER_NAME": "EARTH",
    "REF_FRAME": "TEME",
    "TIME_SYSTEM": "UTC",
    "MEAN_ELEMENT_THEORY": "SGP4",
    "EPOCH": "2026-02-19T15:08:46.897440",
    "MEAN_MOTION": "14.52169666",
    "ECCENTRICITY": "0.01064382",
    "INCLINATION": "89.0438",
    "RA_OF_ASC_NODE": "287.7605",
    "ARG_OF_PERICENTER": "319.5673",
    "MEAN_ANOMALY": "39.7658",
    "EPHEMERIS_TYPE": "0",
    "CLASSIFICATION_TYPE": "U",
    "NORAD_CAT_ID": "60632",
    "ELEMENT_SET_NO": "999",
    "REV_AT_EPOCH": "8128",
    "BSTAR": "0.00022283772000",
    "MEAN_MOTION_DOT": "0.00000988",
    "MEAN_MOTION_DDOT": "0.0000000000000",
    "SEMIMAJOR_AXIS": "7096.708",
    "PERIOD": "99.162",
    "APOAPSIS": "794.109",
    "PERIAPSIS": "643.037",
    "OBJECT_TYPE": "DEBRIS",
    "RCS_SIZE": "MEDIUM",
    "COUNTRY_CODE": "PRC",
    "LAUNCH_DATE": "2024-08-06",
    "SITE": "TSC",
    "DECAY_DATE": null,
    "FILE": "5039972",
    "GP_ID": "313181222",
    "TLE_LINE0": "0 CZ-6A DEB",
    "TLE_LINE1": "1 60632U 24140AH  26050.63109835  .00000988  00000-0  22284-3 0  9992",
    "TLE_LINE2": "2 60632  89.0438 287.7605 0106438 319.5673  39.7658 14.52169666 81285"
  },
  {
    "CCSDS_OMM_VERS": "3.0",
    "COMMENT": "GENERATED VIA SPACE-TRACK.ORG API",
    "CREATION_DATE": "2026-02-19T17:59:09",
    "ORIGINATOR": "18 SPCS",
    "OBJECT_NAME": "DELTA 1 DEB",
    "OBJECT_ID": "1978-026T",
    "CENTER_NAME": "EARTH",
    "REF_FRAME": "TEME",
    "TIME_SYSTEM": "UTC",
    "MEAN_ELEMENT_THEORY": "SGP4",
    "EPOCH": "2026-02-19T15:08:44.810880",
    "MEAN_MOTION": "13.94740674",
    "ECCENTRICITY": "0.00621340",
    "INCLINATION": "99.3954",
    "RA_OF_ASC_NODE": "282.6951",
    "ARG_OF_PERICENTER": "120.4036",
    "MEAN_ANOMALY": "266.5289",
    "EPHEMERIS_TYPE": "0",
    "CLASSIFICATION_TYPE": "U",
    "NORAD_CAT_ID": "12178",
    "ELEMENT_SET_NO": "999",
    "REV_AT_EPOCH": "28870",
    "BSTAR": "0.00018093072000",
    "MEAN_MOTION_DOT": "0.00000200",
    "MEAN_MOTION_DDOT": "0.0000000000000",
    "SEMIMAJOR_AXIS": "7290.201",
    "PERIOD": "103.245",
    "APOAPSIS": "957.363",
    "PERIAPSIS": "866.770",
    "OBJECT_TYPE": "DEBRIS",
    "RCS_SIZE": "SMALL",
    "COUNTRY_CODE": "US",
    "LAUNCH_DATE": "1978-03-05",
    "SITE": "AFWTR",
    "DECAY_DATE": null,
    "FILE": "5039972",
    "GP_ID": "313157881",
    "TLE_LINE0": "0 DELTA 1 DEB",
    "TLE_LINE1": "1 12178U 78026T   26050.63107420  .00000200  00000-0  18093-3 0  9994",
    "TLE_LINE2": "2 12178  99.3954 282.6951 0062134 120.4036 266.5289 13.94740674288703"
  },
  {
    "CCSDS_OMM_VERS": "3.0",
    "COMMENT": "GENERATED VIA SPACE-TRACK.ORG API",
    "CREATION_DATE": "2026-02-19T17:59:09",
    "ORIGINATOR": "18 SPCS",
    "OBJECT_NAME": "CZ-6A DEB",
    "OBJECT_ID": "2024-140BP",
    "CENTER_NAME": "EARTH",
    "REF_FRAME": "TEME",
    "TIME_SYSTEM": "UTC",
    "MEAN_ELEMENT_THEORY": "SGP4",
    "EPOCH": "2026-02-19T15:08:34.874880",
    "MEAN_MOTION": "14.09849243",
    "ECCENTRICITY": "0.00923667",
    "INCLINATION": "88.9684",
    "RA_OF_ASC_NODE": "287.0662",
    "ARG_OF_PERICENTER": "213.8031",
    "MEAN_ANOMALY": "145.7245",
    "EPHEMERIS_TYPE": "0",
    "CLASSIFICATION_TYPE": "U",
    "NORAD_CAT_ID": "60662",
    "ELEMENT_SET_NO": "999",
    "REV_AT_EPOCH": "7886",
    "BSTAR": "0.00008610934000",
    "MEAN_MOTION_DOT": "0.00000171",
    "MEAN_MOTION_DDOT": "0.0000000000000",
    "SEMIMAJOR_AXIS": "7238.025",
    "PERIOD": "102.139",
    "APOAPSIS": "926.745",
    "PERIAPSIS": "793.034",
    "OBJECT_TYPE": "DEBRIS",
    "RCS_SIZE": "MEDIUM",
    "COUNTRY_CODE": "PRC",
    "LAUNCH_DATE": "2024-08-06",
    "SITE": "TSC",
    "DECAY_DATE": null,
    "FILE": "5039972",
    "GP_ID": "313181735",
    "TLE_LINE0": "0 CZ-6A DEB",
    "TLE_LINE1": "1 60662U 24140BP  26050.63095920  .00000171  00000-0  86109-4 0  9995",
    "TLE_LINE2": "2 60662  88.9684 287.0662 0092367 213.8031 145.7245 14.09849243 78862"
  }
]